NORAD_CAT_ID,OBJECT_NAME,OBJECT_TYPE,EPOCH,MEAN_MOTION,ECCENTRICITY,INCLINATION,RA_OF_ASC_NODE,ARG_OF_PERICENTER,MEAN_ANOMALY,BSTAR,MEAN_MOTION_DOT,MEAN_MOTION_DDOT,TLE_LINE0,TLE_LINE1,TLE_LINE2,SEMIMAJOR_AXIS,PERIOD,APOGEE,PERIGEE,DECAYED
56475.0,STARLINK-5541,PAYLOAD,2024-05-15 20:24:28,14.98338994,0.0002863,70.0004,355.6599,276.1491,83.9342,-6.1772e-05,-8.3e-06,0.0,0 STARLINK-5541,1 56475U 23064AD  24136.85033414 -.00000830  00000-0 -61772-4 0  9996,2 56475  70.0004 355.6599 0002863 276.1491  83.9342 14.98338994 56818,6950.165,96.106,574.02,570.04,0.0
56475.0,STARLINK-5541,PAYLOAD,2024-05-15 22:00:36,14.98342765,0.0002761,70.0011,355.4926,273.5204,86.5639,-0.00011035,-1.41e-05,0.0,0 STARLINK-5541,1 56475U 23064AD  24136.91709270 -.00001410  00000-0 -11035-3 0  9994,2 56475  70.0011 355.4926 0002761 273.5204  86.5639 14.98342765 56468,6950.153,96.106,573.937,570.099,0.0
56475.0,STARLINK-5541,PAYLOAD,2024-05-16 14:01:56,14.98351673,0.0002661,70.0007,353.8093,270.079,90.0064,-0.00010048,-1.292e-05,0.0,0 STARLINK-5541,1 56475U 23064AD  24137.58468033 -.00001292  00000-0 -10048-3 0  9998,2 56475  70.0007 353.8093 0002661 270.0790  90.0064 14.98351673 56562,6950.126,96.106,573.84,570.141,0.0
56475.0,STARLINK-5541,PAYLOAD,2024-05-16 20:26:28,14.98352717,0.0002741,70.0006,353.1355,271.217,88.8675,-8.4731e-05,-1.104e-05,0.0,0 STARLINK-5541,1 56475U 23064AD  24137.85171536 -.00001104  00000-0 -84731-4 0  9990,2 56475  70.0006 353.1355 0002741 271.2170  88.8675 14.98352717 56607,6950.123,96.106,573.893,570.083,0.0
56475.0,STARLINK-5541,PAYLOAD,2024-05-17 20:28:30,14.98323574,0.0005015,70.0005,350.611,274.1947,85.8638,-4.2022e-05,-5.95e-06,0.0,0 STARLINK-5541,1 56475U 23064AD  24138.85312936 -.00000595  00000-0 -42022-4 0  9992,2 56475  70.0005 350.6110 0005015 274.1947  85.8638 14.98323574 57110,6950.213,96.107,575.563,568.592,0.0
56475.0,STARLINK-5541,PAYLOAD,2024-05-17 22:04:38,14.98323633,0.0002771,70.0,350.4421,269.1753,90.9088,-7.4365e-05,-9.8e-06,0.0,0 STARLINK-5541,1 56475U 23064AD  24138.91988974 -.00000980  00000-0 -74365-4 0  9993,2 56475  70.0000 350.4421 0002771 269.1753  90.9088 14.98323633 56765,6950.213,96.107,574.003,570.152,0.0
56475.0,STARLINK-5541,PAYLOAD,2024-05-18 14:05:56,14.98424798,0.0002722,69.9969,348.7596,286.7333,73.3528,-0.0014451,-0.00017335,0.0,0 STARLINK-5541,1 56475U 23064AD  24139.58746088 -.00017335  00000-0 -14451-2 0  9995,2 56475  69.9969 348.7596 0002722 286.7333  73.3528 14.98424798 56863,6949.9,96.101,573.657,569.873,0.0
56475.0,STARLINK-5541,PAYLOAD,2024-05-18 20:30:30,14.98275575,0.0002479,69.9991,348.0846,282.752,77.3362,0.0014352,0.00017049,0.0,0 STARLINK-5541,1 56475U 23064AD  24139.85452114  .00017049  00000-0  14352-2 0  9999,2 56475  69.9991 348.0846 0002479 282.7520  77.3362 14.98275575 57264,6950.361,96.11,573.949,570.503,0.0
56475.0,STARLINK-5541,PAYLOAD,2024-05-18 22:06:42,14.98114764,0.000194,69.9992,347.9171,287.9624,72.1324,0.0043482,0.00051883,0.0,0 STARLINK-5541,1 56475U 23064AD  24139.92132189  .00051883  00000-0  43482-2 0  9994,2 56475  69.9992 347.9171 0001940 287.9624  72.1324 14.98114764 56912,6950.859,96.121,574.072,571.375,0.0
56475.0,STARLINK-5541,PAYLOAD,2024-05-18 23:42:44,14.9836823,0.0003159,69.9994,347.7481,270.4033,89.6764,-5.5494e-05,-7.56e-06,0.0,0 STARLINK-5541,1 56475U 23064AD  24139.98801464 -.00000756  00000-0 -55494-4 0  9992,2 56475  69.9994 347.7481 0003159 270.4033  89.6764 14.98368230 57282,6950.075,96.105,574.135,569.744,0.0
56475.0,STARLINK-5541,PAYLOAD,2024-05-19 14:07:59,14.98321409,0.0003155,69.999,346.233,273.8522,86.2276,-3.5281e-05,-5.14e-06,0.0,0 STARLINK-5541,1 56475U 23064AD  24140.58888703 -.00000514  00000-0 -35281-4 0  9995,2 56475  69.9990 346.2330 0003155 273.8522  86.2276 14.98321409 57010,6950.219,96.108,574.277,569.892,0.0
56475.0,STARLINK-5541,PAYLOAD,2024-05-19 20:32:32,14.98319683,0.0003344,69.999,345.5597,271.3173,88.7602,-3.6737e-05,-5.31e-06,0.0,0 STARLINK-5541,1 56475U 23064AD  24140.85593013 -.00000531  00000-0 -36737-4 0  9998,2 56475  69.9990 345.5597 0003344 271.3173  88.7602 14.98319683 57417,6950.225,96.108,574.414,569.766,0.0
56475.0,STARLINK-5541,PAYLOAD,2024-05-20 12:33:52,14.98339516,0.000341,69.9989,343.8762,271.3812,88.6956,-5.6203e-05,-7.64e-06,0.0,0 STARLINK-5541,1 56475U 23064AD  24141.52352051 -.00000764  00000-0 -56203-4 0  9996,2 56475  69.9989 343.8762 0003410 271.3812  88.6956 14.98339516 57513,6950.163,96.106,574.398,569.658,0.0
56475.0,STARLINK-5541,PAYLOAD,2024-05-20 23:46:48,14.98345838,0.0003402,70.0007,342.6983,267.0154,93.0616,0.00046327,5.441e-05,0.0,0 STARLINK-5541,1 56475U 23064AD  24141.99083438  .00005441  00000-0  46327-3 0  9997,2 56475  70.0007 342.6983 0003402 267.0154  93.0616 14.98345838 57585,6950.144,96.106,574.373,569.644,0.0
56475.0,STARLINK-5541,PAYLOAD,2024-05-21 14:12:01,14.98332535,0.0003055,70.0014,341.1835,263.8931,96.188,0.00033851,3.949e-05,0.0,0 STARLINK-5541,1 56475U 23064AD  24142.59168054  .00003949  00000-0  33851-3 0  9991,2 56475  70.0014 341.1835 0003055 263.8931  96.1880 14.98332535 57312,6950.185,96.107,574.173,569.927,0.0
56475.0,STARLINK-5541,PAYLOAD,2024-05-21 20:36:33,14.98334537,0.0002778,70.0021,340.5111,255.4634,104.6217,0.00028241,3.279e-05,0.0,0 STARLINK-5541,1 56475U 23064AD  24142.85871886  .00003279  00000-0  28241-3 0  9997,2 56475  70.0021 340.5111 0002778 255.4634 104.6217 14.98334537 57715,6950.179,96.107,573.975,570.113,0.0
56475.0,STARLINK-5541,PAYLOAD,2024-05-21 22:12:41,14.98337725,0.0003031,70.0014,340.3419,262.9529,97.1285,0.00033786,3.941e-05,0.0,0 STARLINK-5541,1 56475U 23064AD  24142.92547764  .00003941  00000-0  33786-3 0  9996,2 56475  70.0014 340.3419 0003031 262.9529  97.1285 14.98337725 57369,6950.169,96.107,574.141,569.927,0.0
56475.0,STARLINK-5541,PAYLOAD,2024-05-21 23:48:49,14.98339541,0.0003036,70.0014,340.1736,263.1983,96.8831,0.00036787,4.3e-05,0.0,0 STARLINK-5541,1 56475U 23064AD  24142.99223695  .00004300  00000-0  36787-3 0  9991,2 56475  70.0014 340.1736 0003036 263.1983  96.8831 14.98339541 57373,6950.163,96.106,574.138,569.918,0.0
56475.0,STARLINK-5541,PAYLOAD,2024-05-22 20:38:34,14.98333593,0.0002734,70.0022,337.9859,249.0332,111.0534,6.6262e-05,6.98e-06,0.0,0 STARLINK-5541,1 56475U 23064AD  24143.86011620  .00000698  00000-0  66262-4 0  9999,2 56475  70.0022 337.9859 0002734 249.0332 111.0534 14.98333593 57862,6950.182,96.107,573.947,570.147,0.0
56475.0,STARLINK-5541,PAYLOAD,2024-05-23 14:16:02,14.98333537,0.0002847,70.0014,336.1339,253.8081,106.2765,0.00010846,1.201e-05,0.0,0 STARLINK-5541,1 56475U 23064AD  24144.59447609  .00001201  00000-0  10846-3 0  9997,2 56475  70.0014 336.1339 0002847 253.8081 106.2765 14.98333537 57619,6950.182,96.107,574.026,570.068,0.0
56475.0,STARLINK-5541,PAYLOAD,2024-05-23 20:40:34,14.98332509,0.000292,70.0013,335.4605,254.6277,105.456,6.7646e-05,7.14e-06,0.0,0 STARLINK-5541,1 56475U 23064AD  24144.86151618  .00000714  00000-0  67646-4 0  9998,2 56475  70.0013 335.4605 0002920 254.6277 105.4560 14.98332509 57650,6950.185,96.107,574.08,570.021,0.0
56475.0,STARLINK-5541,PAYLOAD,2024-05-23 22:16:43,14.98333111,0.0002907,70.0002,335.2921,253.9701,106.1138,8.4433e-05,9.15e-06,0.0,0 STARLINK-5541,1 56475U 23064AD  24144.92827703  .00000915  00000-0  84433-4 0  9996,2 56475  70.0002 335.2921 0002907 253.9701 106.1138 14.98333111 58027,6950.183,96.107,574.069,570.028,0.0
56475.0,STARLINK-5541,PAYLOAD,2024-05-24 14:18:03,14.98350795,0.0003003,69.9998,333.6091,271.5892,88.4923,-0.00031326,-3.831e-05,0.0,0 STARLINK-5541,1 56475U 23064AD  24145.59587929 -.00003831  00000-0 -31326-3 0  9997,2 56475  69.9998 333.6091 0003003 271.5892  88.4923 14.98350795 57764,6950.129,96.106,574.081,569.906,0.0
56475.0,STARLINK-5541,PAYLOAD,2024-05-24 22:18:46,14.98308916,0.0003099,69.9997,332.7676,267.1441,92.9364,-0.00075926,-9.136e-05,0.0,0 STARLINK-5541,1 56475U 23064AD  24145.92970789 -.00009136  00000-0 -75926-3 0  9992,2 56475  69.9997 332.7676 0003099 267.1441  92.9364 14.98308916 57811,6950.258,96.108,574.277,569.969,0.0
56475.0,STARLINK-5541,PAYLOAD,2024-05-25 12:43:56,14.9832743,0.0002963,69.9995,331.2499,266.1791,93.9029,0.00010236,1.128e-05,0.0,0 STARLINK-5541,1 56475U 23064AD  24146.53052058  .00001128  00000-0  10236-3 0  9994,2 56475  69.9995 331.2499 0002963 266.1791  93.9029 14.98327430 58263,6950.201,96.107,574.125,570.006,0.0
56475.0,STARLINK-5541,PAYLOAD,2024-05-25 14:20:05,14.98328015,0.0003102,69.9991,331.0817,268.4834,91.597,5.9984e-05,6.23e-06,0.0,0 STARLINK-5541,1 56475U 23064AD  24146.59728148  .00000623  00000-0  59984-4 0  9993,2 56475  69.9991 331.0817 0003102 268.4834  91.5970 14.98328015 57910,6950.199,96.107,574.22,569.908,0.0
56475.0,STARLINK-5541,PAYLOAD,2024-05-26 12:45:57,14.9833205,0.0003414,69.9996,328.7262,271.22,88.8568,0.00016287,1.851e-05,0.0,0 STARLINK-5541,1 56475U 23064AD  24147.53191671  .00001851  00000-0  16287-3 0  9995,2 56475  69.9996 328.7262 0003414 271.2200  88.8568 14.98332050 58419,6950.187,96.107,574.424,569.679,0.0
56475.0,STARLINK-5541,PAYLOAD,2024-05-26 14:22:05,14.98327571,0.0002914,69.9995,328.5574,268.6671,91.4155,0.00021471,2.47e-05,0.0,0 STARLINK-5541,1 56475U 23064AD  24147.59867847  .00002470  00000-0  21471-3 0  9995,2 56475  69.9995 328.5574 0002914 268.6671  91.4155 14.98327571 58063,6950.2,96.107,574.091,570.04,0.0
56475.0,STARLINK-5541,PAYLOAD,2024-05-26 22:22:45,14.98335443,0.0003229,69.9997,327.7163,268.9784,91.1005,0.00018134,2.072e-05,0.0,0 STARLINK-5541,1 56475U 23064AD  24147.93247363  .00002072  00000-0  18134-3 0  9998,2 56475  69.9997 327.7163 0003229 268.9784  91.1005 14.98335443 58112,6950.176,96.107,574.285,569.797,0.0
56475.0,STARLINK-5541,PAYLOAD,2024-05-27 12:47:58,14.98327123,0.000286,70.0,326.2013,267.2718,92.8113,8.4621e-05,9.17e-06,0.0,0 STARLINK-5541,1 56475U 23064AD  24148.53332058  .00000917  00000-0  84621-4 0  9992,2 56475  70.0000 326.2013 0002860 267.2718  92.8113 14.98327123 58560,6950.202,96.107,574.055,570.079,0.0
